STARLINK-35496          
1 66114U 25237A   25324.83336806 -.00004353  00000+0 -98857-4 0  9997
2 66114  53.1588 190.6993 0000932 149.5484 344.2493 15.39632834  5958
STARLINK-35428          
1 66115U 25237B   25324.00003472  .00046869  00000+0  11757-2 0  9995
2 66115  53.1598 194.7792 0001287  89.7336  25.3832 15.39589967  5825
STARLINK-35573          
1 66116U 25237C   25324.79996634  .00043899  00000+0  11010-2 0  9995
2 66116  53.1579 190.7538 0001488  96.1158 264.0016 15.39622937  5861
STARLINK-35572          
1 66117U 25237D   25324.83336806 -.00009020  00000+0 -21577-3 0  9990
2 66117  53.1594 190.8010 0001194  92.1694 350.1582 15.39620399  5955
STARLINK-35468          
1 66118U 25237E   25324.63308627  .00046657  00000+0  11680-2 0  9997
2 66118  53.1575 191.8452 0002121  94.1461 265.9787 15.39653575  5830
STARLINK-35547          
1 66119U 25237F   25324.83336806 -.00001649  00000+0 -31268-4 0  9990
2 66119  53.1586 190.6464 0001018 103.9129  55.6661 15.39618369  5957
STARLINK-35553          
1 66120U 25237G   25324.83336806 -.00002525  00000+0 -53139-4 0  9997
2 66120  53.1592 190.7497 0001598  97.1213  10.8329 15.39630914  5958
STARLINK-35631          
1 66121U 25237H   25324.83336806  .00011100  00000+0  28740-3 0  9994
2 66121  53.1589 190.5427 0001125  77.4631 133.6695 15.39586048  5955
STARLINK-35653          
1 66122U 25237J   25324.79165863  .00039154  00000+0  85891-3 0  9992
2 66122  53.1585 190.6983 0003875 327.2017  32.8748 15.43701379  5868
STARLINK-35628          
1 66123U 25237K   25324.65972824  .00075874  00000+0  13553-2 0  9995
2 66123  53.1612 191.2987 0002190  89.2428 270.8832 15.49385672  5847
STARLINK-35645          
1 66124U 25237L   25324.78901560  .00053367  00000+0  10255-2 0  9998
2 66124  53.1611 190.6845 0003946 171.6332 188.4743 15.47441534  5868
STARLINK-35649          
1 66125U 25237M   25324.33650648  .00069974  00000+0  12522-2 0  9998
2 66125  53.1591 192.8358 0001581  99.2867 260.8321 15.49370913  5793
STARLINK-35658          
1 66126U 25237N   25324.72319164  .00066246  00000+0  11879-2 0  9990
2 66126  53.1587 190.9820 0001081  97.6404 262.4728 15.49336653  5855
STARLINK-35629          
1 66127U 25237P   25324.33580360  .00067746  00000+0  12145-2 0  9999
2 66127  53.1592 192.8309 0001974  75.0969 285.0259 15.49333762  5793
STARLINK-35612          
1 66128U 25237Q   25323.91471770  .00035664  00000+0  89720-3 0  9995
2 66128  53.1595 195.1803 0001220  92.9555 267.1589 15.39627368  5722
STARLINK-35632          
1 66129U 25237R   25324.62413551  .00033521  00000+0  84369-3 0  9992
2 66129  53.1609 191.7858 0001820  89.1129 271.0084 15.39642737  5835
STARLINK-35637          
1 66130U 25237S   25324.83336806 -.00005989  00000+0 -13986-3 0  9990
2 66130  53.1593 190.7495 0001031  89.0927  17.1230 15.39619754  5952
STARLINK-35630          
1 66131U 25237T   25324.83336806 -.00004560  00000+0 -10410-3 0  9994
2 66131  53.1591 190.6988 0000859  96.1039  35.8562 15.39621705  5951
STARLINK-34412          
1 66132U 25237U   25324.83336806  .00000254  00000+0  16326-4 0  9992
2 66132  53.1587 190.6476 0001210  92.6898  65.0374 15.39613085  5863
STARLINK-35520          
1 66133U 25237V   25324.83336806  .00000368  00000+0  19180-4 0  9990
2 66133  53.1585 190.5960 0000842 128.2949  55.1385 15.39631222  5957
STARLINK-35525          
1 66134U 25237W   25324.83336806  .00002900  00000+0  82478-4 0  9995
2 66134  53.1585 190.5462 0000957  96.3197 112.9071 15.39613595  5959
STARLINK-34852          
1 66135U 25237X   25324.83336806  .00017184  00000+0  43906-3 0  9998
2 66135  53.1591 190.4923 0001335  97.5593 137.4549 15.39589680  5917
STARLINK-35592          
1 66136U 25237Y   25323.94566045  .00083557  00000+0  14915-2 0  9994
2 66136  53.1601 194.6589 0001575 102.6642 257.4543 15.49363715  5730
STARLINK-35576          
1 66137U 25237Z   25323.94531695  .00081593  00000+0  14572-2 0  9995
2 66137  53.1594 194.6559 0001498 101.5341 258.5836 15.49360360  5737
STARLINK-35623          
1 66138U 25237AA  25324.65456255  .00059398  00000+0  10661-2 0  9996
2 66138  53.1591 191.2631 0001180 324.0056  36.0873 15.49356340  5847
STARLINK-35549          
1 66139U 25237AB  25323.94428689  .00078957  00000+0  14110-2 0  9993
2 66139  53.1594 194.6493 0001530 100.0977 260.0205 15.49357920  5738
STARLINK-35625          
1 66140U 25237AC  25323.36411366  .00088429  00000+0  15882-2 0  9997
2 66140  53.1603 197.4281 0004454  49.8515 310.2884 15.49156067  5643
STARLINK-35603          
1 66141U 25237AD  25323.94394340  .00072833  00000+0  13043-2 0  9993
2 66141  53.1589 194.6480 0001601  97.9067 262.2124 15.49332604  5730
TJS-20                  
1 66142U 25238A   25324.81359394  .00000043  00000+0  00000+0 0  9992
2 66142   5.9372 300.4151 0001454  99.1038  15.9442  1.00269852   249
CZ-5 R/B                
1 66143U 25238B   25324.25271670  .00083097  15319-5  18127-2 0  9998
2 66143  16.2669 264.0759 7587212 181.4368 173.4411  1.94874041   557
SPAINSAT NG II          
1 66144U 25239A   25321.84156371 -.00000354  00000+0  00000+0 0  9991
2 66144  19.9038 243.4991 7869625 184.0240 159.6654  1.04198281   298
STARLINK-35318          
1 66146U 25240A   25324.72175513  .00022226  00000+0  56355-3 0  9993
2 66146  53.1589 210.4692 0001276  91.4638 268.6513 15.39645073  5332
STARLINK-33948          
1 66147U 25240B   25323.20664153 -.00002209  00000+0 -31762-4 0  9996
2 66147  53.1591 217.3645 0000729  92.4248 267.6845 15.49238093  5103
STARLINK-35081          
1 66148U 25240C   25324.68268606 -.00153243  00000+0 -26467-2 0  9992
2 66148  53.1596 210.2225 0001344 132.8696 227.2427 15.50909409  5280
STARLINK-35601          
1 66149U 25240D   25324.83336806 -.00002570  00000+0 -54308-4 0  9991
2 66149  53.1589 209.7825 0001134 100.3891 239.6341 15.39616622  5388
STARLINK-35605          
1 66150U 25240E   25324.68938848 -.00351459  00000+0 -67560-2 0  9995
2 66150  53.1594 210.2652 0001284  80.7762 279.3392 15.48642865  5289
STARLINK-35540          
1 66151U 25240F   25324.81795510  .00089704  00000+0  16003-2 0  9993
2 66151  53.1593 209.6449 0001019  84.0925 276.0200 15.49348116  5307
STARLINK-35455          
1 66152U 25240G   25324.71711152  .00032660  00000+0  82206-3 0  9991
2 66152  53.1587 210.4390 0001215  98.6355 261.4788 15.39654085  5282
STARLINK-34752          
1 66153U 25240H   25324.83336806 -.00004540  00000+0 -10359-3 0  9992
2 66153  53.1591 209.7317 0000978 102.4107 263.3568 15.39621274  5384
STARLINK-34625          
1 66154U 25240J   25324.83336806 -.02059815  00000+0 -51206-1 0  9994
2 66154  53.1598 209.5876 0000999  98.1759 339.3996 15.43345365  5431
STARLINK-35580          
1 66155U 25240K   25324.81658262  .00040608  00000+0  73405-3 0  9999
2 66155  53.1594 209.6344 0001166  85.7342 274.3800 15.49322569  5301
STARLINK-35621          
1 66156U 25240L   25324.83336806 -.00006558  00000+0 -15411-3 0  9990
2 66156  53.1597 209.6788 0001293 100.8568 290.6716 15.39620069  5387
STARLINK-35594          
1 66157U 25240M   25324.75138714  .00059912  00000+0  10759-2 0  9999
2 66157  53.1594 209.9390 0001149  89.6255 270.4885 15.49339816  5295
STARLINK-35587          
1 66158U 25240N   25324.83336806 -.00002685  00000+0 -57185-4 0  9994
2 66158  53.1589 209.8311 0001059  99.1938 215.0862 15.39616435  5380
STARLINK-35586          
1 66159U 25240P   25324.75070122  .00073450  00000+0  13156-2 0  9996
2 66159  53.1594 209.9342 0001120  76.0912 284.0222 15.49324807  5293
STARLINK-35636          
1 66160U 25240Q   25324.83336806 -.00001566  00000+0 -29181-4 0  9999
2 66160  53.1588 209.8341 0001307  99.5677 212.8431 15.39616112  5384
STARLINK-35635          
1 66161U 25240R   25324.71678204  .00035451  00000+0  89148-3 0  9994
2 66161  53.1585 210.4353 0001471  87.1897 272.9276 15.39642593  5287
STARLINK-35633          
1 66162U 25240S   25324.71892265  .00048315  00000+0  87098-3 0  9995
2 66162  53.1591 209.7299 0000921  84.0023 276.1091 15.49322506  5293
STARLINK-35607          
1 66163U 25240T   25324.71857874  .00054037  00000+0  97231-3 0  9991
2 66163  53.1591 209.7285 0000907  85.1061 275.0051 15.49327040  5299
STARLINK-35614          
1 66164U 25240U   25324.71789308  .00089406  00000+0  15964-2 0  9998
2 66164  53.1588 209.7211 0001122  74.1219 285.9914 15.49323394  5294
STARLINK-35575          
1 66165U 25240V   25324.71823683  .00088527  00000+0  15808-2 0  9994
2 66165  53.1594 209.7250 0001085  75.9338 284.1792 15.49326473  5290
STARLINK-35624          
1 66166U 25240W   25324.71720933  .00048975  00000+0  88207-3 0  9996
2 66166  53.1595 209.7169 0000632  62.7021 297.4052 15.49342576  5299
STARLINK-35641          
1 66167U 25240X   25324.71754522  .00081196  00000+0  14528-2 0  9994
2 66167  53.1587 209.7198 0000780  69.4491 290.6602 15.49310192  5297
STARLINK-35578          
1 66168U 25240Y   25324.71617558  .00080858  00000+0  14455-2 0  9995
2 66168  53.1589 209.7108 0000865  64.3925 295.7173 15.49336415  5296
STARLINK-35638          
1 66169U 25240Z   25324.71686350  .00087966  00000+0  15705-2 0  9998
2 66169  53.1592 209.7151 0001249  71.5085 288.6060 15.49334162  5296
STARLINK-35585          
1 66170U 25240AA  25324.71583255  .00076598  00000+0  13704-2 0  9996
2 66170  53.1592 209.7088 0001089  86.0619 274.0515 15.49339125  5291
STARLINK-35606          
1 66171U 25240AB  25324.71548529  .00037137  00000+0  67172-3 0  9997
2 66171  53.1594 209.7046 0000868  96.4029 263.7079 15.49346525  5294
STARLINK-35627          
1 66172U 25240AC  25324.71651787  .00080029  00000+0  14305-2 0  9996
2 66172  53.1590 209.7128 0000684  63.8564 296.2515 15.49343727  5297
STARLINK-35634          
1 66173U 25240AD  25324.71514396  .00078217  00000+0  13994-2 0  9990
2 66173  53.1590 209.7041 0000798  88.6750 271.4350 15.49327912  5290
